ELYSIUM STAR 2 & LFF    
1 43760U 18099C   24287.84983964  .00170927  00000+0  30497-2 0  9991
2 43760  97.4982 357.5144 0005800 216.9466 143.1385 15.49428082321438
